[{"OBJECT_NAME":"STARLINK-35613","OBJECT_ID":"2025-236M","EPOCH":"2026-03-09T11:21:32.462496","MEAN_MOTION":15.30202761,"ECCENTRICITY":0.00012116,"INCLINATION":53.1589,"RA_OF_ASC_NODE":104.724,"ARG_OF_PERICENTER":91.141,"MEAN_ANOMALY":268.9729,"EPHEMERIS_TYPE":0,"CLASSIFICATION_TYPE":"U","NORAD_CAT_ID":66097,"ELEMENT_SET_NO":999,"REV_AT_EPOCH":2291,"BSTAR":0.0008208773,"MEAN_MOTION_DOT":0.00024034,"MEAN_MOTION_DDOT":0},{"OBJECT_NAME":"CZ-6A DEB","OBJECT_ID":"2024-140ZM","EPOCH":"2026-03-09T08:08:19.885920","MEAN_MOTION":14.97554426,"ECCENTRICITY":0.01813088,"INCLINATION":90.2734,"RA_OF_ASC_NODE":12.4689,"ARG_OF_PERICENTER":116.477,"MEAN_ANOMALY":245.5188,"EPHEMERIS_TYPE":0,"CLASSIFICATION_TYPE":"U","NORAD_CAT_ID":61455,"ELEMENT_SET_NO":999,"REV_AT_EPOCH":8308,"BSTAR":0.00078895456,"MEAN_MOTION_DOT":0.00012969,"MEAN_MOTION_DDOT":0}]
